NORAD_CAT_ID,OBJECT_NAME,OBJECT_TYPE,EPOCH,MEAN_MOTION,ECCENTRICITY,INCLINATION,RA_OF_ASC_NODE,ARG_OF_PERICENTER,MEAN_ANOMALY,BSTAR,MEAN_MOTION_DOT,MEAN_MOTION_DDOT,TLE_LINE0,TLE_LINE1,TLE_LINE2,SEMIMAJOR_AXIS,PERIOD,APOGEE,PERIGEE,DECAYED
51803.0,STARLINK-3544,PAYLOAD,2022-08-16 14:00:01,15.08837657,0.0001616,53.2165,70.0086,65.9917,270.8052,0.0010417999999999,0.0001633,0.0,0 STARLINK-3544,1 51803U 22017AM  22228.58334491  .00016330  00000-0  10418-2 0  9991,2 51803  53.2165  70.0086 0001616  65.9917 270.8052 15.08837657  1301,6917.888000000001,95.438,540.87,538.635,0.0
51803.0,STARLINK-3544,PAYLOAD,2022-08-16 22:00:00,15.08832442,0.0001761,53.2165,68.5139,58.5068,289.8916,0.0012767,0.00020085,0.0,0 STARLINK-3544,1 51803U 22017AM  22228.91667824  .00020085  00000-0  12767-2 0  9998,2 51803  53.2165  68.5139 0001761  58.5068 289.8916 15.08832442 27537,6917.903,95.438,540.987,538.55,0.0
51803.0,STARLINK-3544,PAYLOAD,2022-08-17 16:00:00,15.08877313,0.0001696,53.2167,65.1457,65.9862,38.5097,-0.0043431999999999,-0.00068821,0.0,0 STARLINK-3544,1 51803U 22017AM  22229.66667824 -.00068821  00000-0 -43432-2 0  9996,2 51803  53.2167  65.1457 0001696  65.9862  38.5097 15.08877313 27654,6917.766,95.435,540.805,538.4580000000002,0.0
51803.0,STARLINK-3544,PAYLOAD,2022-08-18 06:00:02,15.08846761,0.0001520999999999,53.2162,62.5271,61.3789,333.4597,-0.00087979,-0.00014265,0.0,0 STARLINK-3544,1 51803U 22017AM  22230.25002315 -.00014265  00000-0 -87979-3 0  9999,2 51803  53.2162  62.5271 0001521  61.3789 333.4597 15.08846761 27744,6917.86,95.437,540.7769999999998,538.673,0.0
51803.0,STARLINK-3544,PAYLOAD,2022-08-18 14:00:01,15.08860322,0.000147,53.2163,61.0307,65.8189,340.5482,-0.00076541,-0.00012456,0.0,0 STARLINK-3544,1 51803U 22017AM  22230.58334491 -.00012456  00000-0 -76541-3 0  9991,2 51803  53.2163  61.0307 0001470  65.8189 340.5482 15.08860322  1300,6917.818,95.436,540.7,538.6659999999998,0.0
51803.0,STARLINK-3544,PAYLOAD,2022-08-18 22:00:00,15.08824203,0.0001534,53.2162,59.536,56.6381,1.3508,0.00064333,9.961e-05,0.0,0 STARLINK-3544,1 51803U 22017AM  22230.91667824  .00009961  00000-0  64333-3 0  9998,2 51803  53.2162  59.5360 0001534  56.6381   1.3508 15.08824203  1302,6917.929,95.439,540.855,538.732,0.0
51803.0,STARLINK-3544,PAYLOAD,2022-08-19 04:00:01,15.08846321,0.0001443,53.2158,58.4126,56.2949,280.4377,-0.001831,-0.00029315,0.0,0 STARLINK-3544,1 51803U 22017AM  22231.16668981 -.00029315  00000-0 -18310-2 0  9991,2 51803  53.2158  58.4126 0001443  56.2949 280.4377 15.08846321 27879,6917.861,95.437,540.724,538.7280000000002,0.0
51803.0,STARLINK-3544,PAYLOAD,2022-08-19 14:00:01,15.08849738,0.0001431999999999,53.216,56.5417,63.982,17.1713,-0.00023768,-4.07e-05,0.0,0 STARLINK-3544,1 51803U 22017AM  22231.58334491 -.00004070  00000-0 -23768-3 0  9998,2 51803  53.2160  56.5417 0001432  63.9820  17.1713 15.08849738  1309,6917.851,95.437,540.706,538.725,0.0
51803.0,STARLINK-3544,PAYLOAD,2022-08-19 22:00:00,15.08832315,0.0001575999999999,53.2161,55.047,55.7356,37.0243,0.0013145,0.0002069,0.0,0 STARLINK-3544,1 51803U 22017AM  22231.91667824  .00020690  00000-0  13145-2 0  9995,2 51803  53.2161  55.0470 0001576  55.7356  37.0243 15.08832315 27990,6917.904,95.438,540.859,538.679,0.0
51803.0,STARLINK-3544,PAYLOAD,2022-08-20 14:00:01,15.08842533,0.0001598,53.2161,52.0526,64.9346,50.9975,-0.00062963,-0.00010295,0.0,0 STARLINK-3544,1 51803U 22017AM  22232.58334491 -.00010295  00000-0 -62963-3 0  9995,2 51803  53.2161  52.0526 0001598  64.9346  50.9975 15.08842533 28095,6917.873000000001,95.437,540.8430000000002,538.632,0.0
51803.0,STARLINK-3544,PAYLOAD,2022-08-20 22:00:00,15.08811394,0.0001699,53.2162,50.5578,56.8125,70.7162,0.0030337,0.00048287,0.0,0 STARLINK-3544,1 51803U 22017AM  22232.91667824  .00048287  00000-0  30337-2 0  9990,2 51803  53.2162  50.5578 0001699  56.8125  70.7162 15.08811394  1307,6917.968000000003,95.439,541.008,538.6569999999998,0.0
51803.0,STARLINK-3544,PAYLOAD,2022-08-21 14:00:01,15.08849459,0.0001738,53.2164,47.5635,65.2835,85.4175,-0.0027356999999999,-0.00043575,0.0,0 STARLINK-3544,1 51803U 22017AM  22233.58334491 -.00043575  00000-0 -27357-2 0  9990,2 51803  53.2164  47.5635 0001738  65.2835  85.4175 15.08849459  1305,6917.851,95.437,540.919,538.514,0.0
51803.0,STARLINK-3544,PAYLOAD,2022-08-21 20:00:01,15.08812555,0.0001879,53.2164,46.4425,60.3834,9.0147,0.0009564,0.00014954,0.0,0 STARLINK-3544,1 51803U 22017AM  22233.83334491  .00014954  00000-0  95640-3 0  9996,2 51803  53.2164  46.4425 0001879  60.3834   9.0147 15.08812555 28285,6917.964,95.439,541.129,538.529,0.0
51803.0,STARLINK-3544,PAYLOAD,2022-08-21 22:00:00,15.0879802,0.0001855999999999,53.2165,46.0686,58.41,103.8849,0.003244,0.0005166,0.0,0 STARLINK-3544,1 51803U 22017AM  22233.91667824  .00051660  00000-0  32440-2 0  9997,2 51803  53.2165  46.0686 0001856  58.4100 103.8849 15.08798020  1306,6918.009,95.44,541.158,538.59,0.0
51803.0,STARLINK-3544,PAYLOAD,2022-08-22 12:00:00,15.08833051,0.0001781999999999,53.2168,43.448,67.1447,25.3999,0.0006445,9.982e-05,0.0,0 STARLINK-3544,1 51803U 22017AM  22234.50001157  .00009982  00000-0  64450-3 0  9991,2 51803  53.2168  43.4480 0001782  67.1447  25.3999 15.08833051  1309,6917.901999999999,95.438,540.999,538.534,0.0
51803.0,STARLINK-3544,PAYLOAD,2022-08-22 22:00:00,15.0881432,0.0001885,53.2168,41.5794,58.7304,138.3106,0.0032283,0.0005143,0.0,0 STARLINK-3544,1 51803U 22017AM  22234.91667824  .00051430  00000-0  32283-2 0  9998,2 51803  53.2168  41.5794 0001885  58.7304 138.3106 15.08814320 28445,6917.959,95.439,541.128,538.52,0.0
51803.0,STARLINK-3544,PAYLOAD,2022-08-23 12:00:00,15.08849335,0.0001783,53.2171,38.9588,68.1287,59.1902,9.75e-05,1.264e-05,0.0,0 STARLINK-3544,1 51803U 22017AM  22235.50001157  .00001264  00000-0  97500-4 0  9990,2 51803  53.2171  38.9588 0001783  68.1287  59.1902 15.08849335 28530,6917.852,95.437,540.95,538.4830000000002,0.0
51803.0,STARLINK-3544,PAYLOAD,2022-08-23 14:00:01,15.08859517,0.0001794,53.2171,38.5853,66.2821,153.9358,-0.0014613,-0.00023482,0.0,0 STARLINK-3544,1 51803U 22017AM  22235.58334491 -.00023482  00000-0 -14613-2 0  9998,2 51803  53.2171  38.5853 0001794  66.2821 153.9358 15.08859517  1303,6917.821,95.436,540.927,538.445,0.0
51803.0,STARLINK-3544,PAYLOAD,2022-08-23 22:00:01,15.08828069,0.0001863,53.2168,37.09,59.7356,172.1601,0.0028384,0.0004516,0.0,0 STARLINK-3544,1 51803U 22017AM  22235.91668981  .00045160  00000-0  28384-2 0  9994,2 51803  53.2168  37.0900 0001863  59.7356 172.1601 15.08828069  1305,6917.917,95.438,541.071,538.493,0.0
51803.0,STARLINK-3544,PAYLOAD,2022-08-24 14:00:01,15.08863362,0.0001682,53.217,34.0961,66.189,188.85,-0.0035405,-0.00056232,0.0,0 STARLINK-3544,1 51803U 22017AM  22236.58334491 -.00056232  00000-0 -35405-2 0  9990,2 51803  53.2170  34.0961 0001682  66.1890 188.8500 15.08863362  1303,6917.809,95.436,540.8380000000002,538.51,0.0
51803.0,STARLINK-3544,PAYLOAD,2022-08-24 20:00:01,15.08812697,0.0001733,53.217,32.9747,59.8808,113.8688,0.0021456,0.00033999,0.0,0 STARLINK-3544,1 51803U 22017AM  22236.83334491  .00033999  00000-0  21456-2 0  9992,2 51803  53.2170  32.9747 0001733  59.8808 113.8688 15.08812697 28733,6917.964,95.439,541.028,538.63,0.0
51803.0,STARLINK-3544,PAYLOAD,2022-08-24 22:00:00,15.0881499,0.000171,53.2167,32.6006,59.1376,207.5055,0.0023478,0.0003725,0.0,0 STARLINK-3544,1 51803U 22017AM  22236.91667824  .00037250  00000-0  23478-2 0  9990,2 51803  53.2167  32.6006 0001710  59.1376 207.5055 15.08814990  1303,6917.956999999999,95.439,541.005,538.639,0.0
51803.0,STARLINK-3544,PAYLOAD,2022-08-25 14:00:01,15.08855348,0.0001609,53.2172,29.6056,65.8128,223.9949,-0.0021445,-0.0003427,0.0,0 STARLINK-3544,1 51803U 22017AM  22237.58334491 -.00034270  00000-0 -21445-2 0  9998,2 51803  53.2172  29.6056 0001609  65.8128 223.9949 15.08855348 28840,6917.833000000001,95.437,540.812,538.585,0.0
51803.0,STARLINK-3544,PAYLOAD,2022-08-25 22:00:00,15.08828025,0.0001675,53.2163,28.1114,60.4158,240.9905,0.0017719,0.00028015,0.0,0 STARLINK-3544,1 51803U 22017AM  22237.91667824  .00028015  00000-0  17719-2 0  9991,2 51803  53.2163  28.1114 0001675  60.4158 240.9905 15.08828025  1301,6917.917,95.438,540.941,538.623,0.0
51803.0,STARLINK-3544,PAYLOAD,2022-08-26 04:00:01,15.08840052,0.0001576999999999,53.2165,26.9876,66.7775,153.3854,-0.00031033,-5.224e-05,0.0,0 STARLINK-3544,1 51803U 22017AM  22238.16668981 -.00005224  00000-0 -31033-3 0  9999,2 51803  53.2165  26.9876 0001577  66.7775 153.3854 15.08840052 28931,6917.88,95.438,540.836,538.654,0.0
51803.0,STARLINK-3544,PAYLOAD,2022-08-26 14:00:01,15.08859818,0.0001634,53.2165,25.1178,67.0456,257.6095,-0.0017384,-0.00027863,0.0,0 STARLINK-3544,1 51803U 22017AM  22238.58335648 -.00027863  00000-0 -17384-2 0  9991,2 51803  53.2165  25.1178 0001634  67.0456 257.6095 15.08859818  1308,6917.82,95.436,540.815,538.554,0.0
51803.0,STARLINK-3544,PAYLOAD,2022-08-26 20:00:01,15.08829017,0.0001686999999999,53.2165,23.9965,61.2518,182.0534,0.0023531999999999,0.00037351,0.0,0 STARLINK-3544,1 51803U 22017AM  22238.83334491  .00037351  00000-0  23532-2 0  9997,2 51803  53.2165  23.9965 0001687  61.2518 182.0534 15.08829017 29038,6917.9140000000025,95.438,540.946,538.612,0.0
51803.0,STARLINK-3544,PAYLOAD,2022-08-26 22:00:00,15.08850445,0.0001628,53.2162,23.6221,60.1059,276.0929,-0.00027273,-4.627e-05,0.0,0 STARLINK-3544,1 51803U 22017AM  22238.91667824 -.00004627  00000-0 -27273-3 0  9994,2 51803  53.2162  23.6221 0001628  60.1059 276.0929 15.08850445  1301,6917.848000000001,95.437,540.84,538.587,0.0
51803.0,STARLINK-3544,PAYLOAD,2022-08-27 14:00:01,15.08844832,0.0001564999999999,53.2165,20.6287,64.3184,295.069,-0.0016414,-0.00026319,0.0,0 STARLINK-3544,1 51803U 22017AM  22239.58334491 -.00026319  00000-0 -16414-2 0  9995,2 51803  53.2165  20.6287 0001565  64.3184 295.0690 15.08844832  1307,6917.866,95.437,540.813,538.648,0.0
